{
"type": "FeatureCollection",
"name": "Sampel_sawah",
"crs": { "type": "name", "properties": { "name": "urn:ogc:def:crs:OGC:1.3:CRS84" } },
"features": [
{"type":"Feature","properties":{"FID":0,"label":"sawah"},"geometry":{"type":"MultiPolygon","coordinates":[[[[112.604054,-7.2330338],[112.6041533,-7.2330338],[112.6042328,-7.2330535],[112.6042527,-7.2330338],[112.6044117,-7.2330535],[112.6045209,-7.2330929],[112.6044812,-7.2332309],[112.6042726,-7.2332309],[112.604054,-7.2332309],[112.604054,-7.2330338]]]]}},
{"type":"Feature","properties":{"FID":1,"label":"sawah"},"geometry":{"type":"MultiPolygon","coordinates":[[[[112.6040116,-7.2330282],[112.6040155,-7.2332744],[112.6036161,-7.2333013],[112.6036588,-7.233032],[112.6036704,-7.2330282],[112.603682,-7.2330282],[112.6040116,-7.2330282]]]]}},
{"type":"Feature","properties":{"FID":2,"label":"sawah"},"geometry":{"type":"MultiPolygon","coordinates":[[[[112.603399,-7.2329974],[112.6035928,-7.2330513],[112.6035308,-7.2333128],[112.6033331,-7.2333359],[112.6033292,-7.2333282],[112.603399,-7.2329974]]]]}},
{"type":"Feature","properties":{"FID":3,"label":"sawah"},"geometry":{"type":"MultiPolygon","coordinates":[[[[112.6033447,-7.2329936],[112.6032982,-7.2333282],[112.6030461,-7.2333359],[112.6031625,-7.232959],[112.6033447,-7.2329936]]]]}},
{"type":"Feature","properties":{"FID":4,"label":"sawah"},"geometry":{"type":"MultiPolygon","coordinates":[[[[112.6044963,-7.2329128],[112.6045001,-7.233009],[112.6043838,-7.2330167],[112.6043799,-7.2328936],[112.6044963,-7.2329128]]]]}},
{"type":"Feature","properties":{"FID":5,"label":"sawah"},"geometry":{"type":"MultiPolygon","coordinates":[[[[112.6043489,-7.2328743],[112.6043567,-7.2330128],[112.6041861,-7.233009],[112.6042093,-7.2328282],[112.6043489,-7.2328743]]]]}},
{"type":"Feature","properties":{"FID":6,"label":"sawah"},"geometry":{"type":"MultiPolygon","coordinates":[[[[112.6041589,-7.2328243],[112.6041434,-7.2329974],[112.6039922,-7.2330051],[112.604031,-7.2327936],[112.6041589,-7.2328243]]]]}},
{"type":"Feature","properties":{"FID":7,"label":"sawah"},"geometry":{"type":"MultiPolygon","coordinates":[[[[112.6039925,-7.2327712],[112.6039703,-7.2330047],[112.6038144,-7.2329921],[112.6038621,-7.2327112],[112.6039925,-7.2327712]]]]}},
{"type":"Feature","properties":{"FID":8,"label":"sawah"},"geometry":{"type":"MultiPolygon","coordinates":[[[[112.6038469,-7.2326989],[112.6038045,-7.2330074],[112.6035766,-7.2330057],[112.6036897,-7.23262],[112.6036967,-7.2326253],[112.6038469,-7.2326989]]]]}},
{"type":"Feature","properties":{"FID":9,"label":"sawah"},"geometry":{"type":"MultiPolygon","coordinates":[[[[112.6031826,-7.2328856],[112.6032179,-7.2327664],[112.6035519,-7.2328576],[112.6035112,-7.232996],[112.6031826,-7.2328856]]]]}},
{"type":"Feature","properties":{"FID":10,"label":"sawah"},"geometry":{"type":"MultiPolygon","coordinates":[[[[112.6035483,-7.2328383],[112.603225,-7.2327524],[112.6032921,-7.2325859],[112.6036031,-7.232691],[112.6035483,-7.2328383]]]]}},
{"type":"Feature","properties":{"FID":11,"label":"sawah"},"geometry":{"type":"MultiPolygon","coordinates":[[[[112.603361,-7.2324439],[112.6035147,-7.2324649],[112.603649,-7.2325403],[112.6036155,-7.2326735],[112.6033098,-7.2325561],[112.603361,-7.2324439]]]]}},
{"type":"Feature","properties":{"FID":12,"label":"sawah"},"geometry":{"type":"MultiPolygon","coordinates":[[[[112.6028509,-7.2326554],[112.6031823,-7.2327515],[112.6031436,-7.2329308],[112.6028035,-7.2328539],[112.6028509,-7.2326554]]]]}},
{"type":"Feature","properties":{"FID":13,"label":"sawah"},"geometry":{"type":"MultiPolygon","coordinates":[[[[112.6031335,-7.2329351],[112.6030754,-7.233076],[112.6027634,-7.2329991],[112.6027978,-7.2328625],[112.6031335,-7.2329351]]]]}},
{"type":"Feature","properties":{"FID":14,"label":"sawah"},"geometry":{"type":"MultiPolygon","coordinates":[[[[112.6027505,-7.2330055],[112.6030776,-7.2330845],[112.6030152,-7.2332596],[112.6027074,-7.2331913],[112.6027246,-7.2330973],[112.6027505,-7.2330055]]]]}},
{"type":"Feature","properties":{"FID":15,"label":"sawah"},"geometry":{"type":"MultiPolygon","coordinates":[[[[112.602998,-7.2332895],[112.6029807,-7.2333664],[112.602617,-7.2333899],[112.6026558,-7.2331913],[112.602998,-7.2332895]]]]}},
{"type":"Feature","properties":{"FID":16,"label":"sawah"},"geometry":{"type":"MultiPolygon","coordinates":[[[[112.6027203,-7.2330269],[112.6026967,-7.2331828],[112.6024771,-7.2331465],[112.6025417,-7.23295],[112.6027203,-7.2330269]]]]}},
{"type":"Feature","properties":{"FID":17,"label":"sawah"},"geometry":{"type":"MultiPolygon","coordinates":[[[[112.6025245,-7.2329458],[112.6024728,-7.2331315],[112.6022727,-7.2330696],[112.6023179,-7.2328732],[112.6025245,-7.2329458]]]]}},
{"type":"Feature","properties":{"FID":18,"label":"sawah"},"geometry":{"type":"MultiPolygon","coordinates":[[[[112.6026256,-7.2331828],[112.6025955,-7.2333877],[112.6022016,-7.2333984],[112.6022619,-7.2330973],[112.6022748,-7.2330803],[112.6026256,-7.2331828]]]]}},
{"type":"Feature","properties":{"FID":19,"label":"sawah"},"geometry":{"type":"MultiPolygon","coordinates":[[[[112.6027066,-7.2329411],[112.6024346,-7.2328495],[112.6024782,-7.2327019],[112.6027528,-7.2328037],[112.6027066,-7.2329411]]]]}},
{"type":"Feature","properties":{"FID":20,"label":"sawah"},"geometry":{"type":"MultiPolygon","coordinates":[[[[112.6028554,-7.2325339],[112.6027707,-7.232763],[112.6024885,-7.2326662],[112.6026347,-7.2324143],[112.6028554,-7.2325339]]]]}},
{"type":"Feature","properties":{"FID":21,"label":"sawah"},"geometry":{"type":"MultiPolygon","coordinates":[[[[112.6029093,-7.2326102],[112.6028913,-7.2324728],[112.6032685,-7.2325008],[112.6031607,-7.2326815],[112.6029093,-7.2326102]]]]}},
{"type":"Feature","properties":{"FID":22,"label":"sawah"},"geometry":{"type":"MultiPolygon","coordinates":[[[[112.6034147,-7.2323964],[112.6030889,-7.2324626],[112.6031197,-7.2321623],[112.6034276,-7.232259],[112.6034147,-7.2323964]]]]}},
{"type":"Feature","properties":{"FID":23,"label":"sawah"},"geometry":{"type":"MultiPolygon","coordinates":[[[[112.603094,-7.2321572],[112.6030684,-7.2324626],[112.6028374,-7.2324499],[112.6029349,-7.2321088],[112.603094,-7.2321572]]]]}},
{"type":"Feature","properties":{"FID":24,"label":"sawah"},"geometry":{"type":"MultiPolygon","coordinates":[[[[112.6029016,-7.2321164],[112.602822,-7.2324423],[112.6026527,-7.2323761],[112.6028195,-7.2321114],[112.6029016,-7.2321164]]]]}},
{"type":"Feature","properties":{"FID":25,"label":"sawah"},"geometry":{"type":"MultiPolygon","coordinates":[[[[112.6035537,-7.2322143],[112.6038345,-7.2323732],[112.6037436,-7.2325144],[112.6035577,-7.2323006],[112.6035537,-7.2322143]]]]}},
{"type":"Feature","properties":{"FID":26,"label":"sawah"},"geometry":{"type":"MultiPolygon","coordinates":[[[[112.6038385,-7.2323771],[112.6040659,-7.2325105],[112.6039551,-7.2326596],[112.6037554,-7.2325144],[112.6038385,-7.2323771]]]]}},
{"type":"Feature","properties":{"FID":27,"label":"sawah"},"geometry":{"type":"MultiPolygon","coordinates":[[[[112.604071,-7.2325161],[112.6042552,-7.2326134],[112.6041831,-7.2327385],[112.603971,-7.2326551],[112.604071,-7.2325161]]]]}},
{"type":"Feature","properties":{"FID":28,"label":"sawah"},"geometry":{"type":"MultiPolygon","coordinates":[[[[112.6044994,-7.232818],[112.6041911,-7.2327445],[112.6042672,-7.2326234],[112.6045214,-7.2327465],[112.6044994,-7.232818]]]]}},
{"type":"Feature","properties":{"FID":29,"label":"sawah"},"geometry":{"type":"MultiPolygon","coordinates":[[[[112.6038168,-7.2323215],[112.6039229,-7.2321508],[112.6041531,-7.2322659],[112.604041,-7.2324645],[112.6038168,-7.2323215]]]]}},
{"type":"Feature","properties":{"FID":30,"label":"sawah"},"geometry":{"type":"MultiPolygon","coordinates":[[[[112.6045795,-7.2325241],[112.6045394,-7.2327286],[112.6043253,-7.2325936],[112.6044133,-7.2324506],[112.6045795,-7.2325241]]]]}},
{"type":"Feature","properties":{"FID":31,"label":"sawah"},"geometry":{"type":"MultiPolygon","coordinates":[[[[112.6042992,-7.2325876],[112.604051,-7.2324665],[112.6041591,-7.2322778],[112.6043953,-7.2324447],[112.6042992,-7.2325876]]]]}},
{"type":"Feature","properties":{"FID":32,"label":"sawah"},"geometry":{"type":"MultiPolygon","coordinates":[[[[112.6045675,-7.2325062],[112.6043172,-7.2323652],[112.6044514,-7.232123],[112.6046075,-7.2322123],[112.6045675,-7.2325062]]]]}},
{"type":"Feature","properties":{"FID":33,"label":"sawah"},"geometry":{"type":"MultiPolygon","coordinates":[[[[112.6042959,-7.232347],[112.6041482,-7.2322403],[112.6042284,-7.2321314],[112.6043846,-7.2322193],[112.6042959,-7.232347]]]]}},
{"type":"Feature","properties":{"FID":34,"label":"sawah"},"geometry":{"type":"MultiPolygon","coordinates":[[[[112.6042411,-7.2321188],[112.6043044,-7.2320309],[112.6044247,-7.2321146],[112.6043888,-7.2321963],[112.6042411,-7.2321188]]]]}},
{"type":"Feature","properties":{"FID":35,"label":"sawah"},"geometry":{"type":"MultiPolygon","coordinates":[[[[112.6039329,-7.2321251],[112.6040954,-7.2318822],[112.6042833,-7.2320036],[112.6041313,-7.2322256],[112.6039329,-7.2321251]]]]}},
{"type":"Feature","properties":{"FID":36,"label":"sawah"},"geometry":{"type":"MultiPolygon","coordinates":[[[[112.6033301,-7.2321232],[112.6031443,-7.2320761],[112.6032764,-7.2318364],[112.6034623,-7.231906],[112.6033301,-7.2321232]]]]}},
{"type":"Feature","properties":{"FID":37,"label":"sawah"},"geometry":{"type":"MultiPolygon","coordinates":[[[[112.6032599,-7.2318282],[112.6031339,-7.2320617],[112.6028738,-7.2319962],[112.603039,-7.2317053],[112.6032599,-7.2318282]]]]}},
{"type":"Feature","properties":{"FID":38,"label":"sawah"},"geometry":{"type":"MultiPolygon","coordinates":[[[[112.6030513,-7.2316889],[112.6030947,-7.2316028],[112.6035511,-7.2317688],[112.6034705,-7.2318794],[112.6030513,-7.2316889]]]]}},
{"type":"Feature","properties":{"FID":39,"label":"sawah"},"geometry":{"type":"MultiPolygon","coordinates":[[[[112.603549,-7.231738],[112.6034107,-7.2316807],[112.6034499,-7.2316028],[112.6035986,-7.2316725],[112.603549,-7.231738]]]]}},
{"type":"Feature","properties":{"FID":40,"label":"sawah"},"geometry":{"type":"MultiPolygon","coordinates":[[[[112.6035697,-7.2314349],[112.603706,-7.2315127],[112.6036192,-7.231652],[112.6034871,-7.2315864],[112.6035697,-7.2314349]]]]}},
{"type":"Feature","properties":{"FID":41,"label":"sawah"},"geometry":{"type":"MultiPolygon","coordinates":[[[[112.6035387,-7.2314185],[112.6033879,-7.2316725],[112.6032682,-7.2316356],[112.603454,-7.2313713],[112.6035387,-7.2314185]]]]}},
{"type":"Feature","properties":{"FID":42,"label":"sawah"},"geometry":{"type":"MultiPolygon","coordinates":[[[[112.6032104,-7.2314185],[112.6032971,-7.2312751],[112.6034375,-7.231357],[112.603326,-7.2314881],[112.6032104,-7.2314185]]]]}},
{"type":"Feature","properties":{"FID":43,"label":"sawah"},"geometry":{"type":"MultiPolygon","coordinates":[[[[112.6031071,-7.2315864],[112.6031959,-7.2314349],[112.6033301,-7.2315086],[112.6032393,-7.2316356],[112.6031071,-7.2315864]]]]}},
{"type":"Feature","properties":{"FID":44,"label":"sawah"},"geometry":{"type":"MultiPolygon","coordinates":[[[[112.6024759,-7.2323666],[112.6023546,-7.2323209],[112.6024274,-7.2321211],[112.6025924,-7.232215],[112.6024759,-7.2323666]]]]}},
{"type":"Feature","properties":{"FID":45,"label":"sawah"},"geometry":{"type":"MultiPolygon","coordinates":[[[[112.6024225,-7.232097],[112.6024613,-7.2319454],[112.6027015,-7.2320802],[112.6026118,-7.2322077],[112.6024225,-7.232097]]]]}},
{"type":"Feature","properties":{"FID":46,"label":"sawah"},"geometry":{"type":"MultiPolygon","coordinates":[[[[112.6026021,-7.2319863],[112.6027307,-7.2318539],[112.6028641,-7.231955],[112.6027137,-7.2320633],[112.6026021,-7.2319863]]]]}},
{"type":"Feature","properties":{"FID":47,"label":"sawah"},"geometry":{"type":"MultiPolygon","coordinates":[[[[112.6024759,-7.2319069],[112.6025632,-7.231748],[112.6027088,-7.2318443],[112.602573,-7.2319767],[112.6024759,-7.2319069]]]]}},
{"type":"Feature","properties":{"FID":48,"label":"sawah"},"geometry":{"type":"MultiPolygon","coordinates":[[[[112.6028641,-7.2319021],[112.602687,-7.2317913],[112.602869,-7.231594],[112.602983,-7.2317023],[112.6028641,-7.2319021]]]]}},
{"type":"Feature","properties":{"FID":49,"label":"sawah"},"geometry":{"type":"MultiPolygon","coordinates":[[[[112.6026943,-7.2314833],[112.602835,-7.2315843],[112.6026676,-7.2317817],[112.6025584,-7.2317071],[112.6026943,-7.2314833]]]]}}
]
}
