{
"type": "FeatureCollection",
"name": "Sampel_Non_sawah",
"crs": { "type": "name", "properties": { "name": "urn:ogc:def:crs:OGC:1.3:CRS84" } },
"features": [
{"type":"Feature","properties":{"FID":0,"label":"Non sawah"},"geometry":{"type":"MultiPolygon","coordinates":[[[[112.7010059,-7.2512495],[112.7011419,-7.2512035],[112.701145,-7.2512066],[112.7011821,-7.2513445],[112.7010523,-7.2513844],[112.7010059,-7.2512495]]]]}},
{"type":"Feature","properties":{"FID":1,"label":"Non sawah"},"geometry":{"type":"MultiPolygon","coordinates":[[[[112.701043,-7.2514028],[112.701111,-7.2513905],[112.7011079,-7.2513905],[112.7011326,-7.2514948],[112.701077,-7.2515285],[112.701043,-7.2514028]]]]}},
{"type":"Feature","properties":{"FID":2,"label":"Non sawah"},"geometry":{"type":"MultiPolygon","coordinates":[[[[112.7011079,-7.2513783],[112.7011883,-7.2513599],[112.7012037,-7.2514457],[112.7011574,-7.2514702],[112.7011079,-7.2513783]]]]}},
{"type":"Feature","properties":{"FID":3,"label":"Non sawah"},"geometry":{"type":"MultiPolygon","coordinates":[[[[112.7011635,-7.2512219],[112.7012192,-7.2512188],[112.7013057,-7.2514212],[112.7012501,-7.2514488],[112.7011635,-7.2512219]]]]}},
{"type":"Feature","properties":{"FID":4,"label":"Non sawah"},"geometry":{"type":"MultiPolygon","coordinates":[[[[112.7012439,-7.251225],[112.7013119,-7.2512188],[112.7013861,-7.2513721],[112.7013243,-7.2513997],[112.7012439,-7.251225]]]]}},
{"type":"Feature","properties":{"FID":5,"label":"Non sawah"},"geometry":{"type":"MultiPolygon","coordinates":[[[[112.7013304,-7.2512158],[112.7013984,-7.2511851],[112.7014479,-7.2513323],[112.7014046,-7.2513568],[112.7013304,-7.2512158]]]]}},
{"type":"Feature","properties":{"FID":6,"label":"Non sawah"},"geometry":{"type":"MultiPolygon","coordinates":[[[[112.7014108,-7.251182],[112.7014757,-7.2511606],[112.7015128,-7.2512863],[112.7014726,-7.2513231],[112.7014108,-7.251182]]]]}},
{"type":"Feature","properties":{"FID":7,"label":"Non sawah"},"geometry":{"type":"MultiPolygon","coordinates":[[[[112.701488,-7.2511453],[112.7015529,-7.2511238],[112.7015839,-7.2512372],[112.7015344,-7.2512771],[112.701488,-7.2511453]]]]}},
{"type":"Feature","properties":{"FID":8,"label":"Non sawah"},"geometry":{"type":"MultiPolygon","coordinates":[[[[112.7011838,-7.2515441],[112.7012681,-7.251489],[112.7013236,-7.2516257],[112.7012434,-7.2516767],[112.7011838,-7.2515441]]]]}},
{"type":"Feature","properties":{"FID":9,"label":"Non sawah"},"geometry":{"type":"MultiPolygon","coordinates":[[[[112.7012866,-7.2514768],[112.7013215,-7.2514564],[112.7013894,-7.2516094],[112.7013544,-7.2516359],[112.7012866,-7.2514768]]]]}},
{"type":"Feature","properties":{"FID":10,"label":"Non sawah"},"geometry":{"type":"MultiPolygon","coordinates":[[[[112.7013976,-7.2516073],[112.7013318,-7.2514544],[112.7013812,-7.2514523],[112.7014428,-7.2515829],[112.7013976,-7.2516073]]]]}},
{"type":"Feature","properties":{"FID":11,"label":"Non sawah"},"geometry":{"type":"MultiPolygon","coordinates":[[[[112.7014264,-7.251381],[112.7014716,-7.2513667],[112.7015477,-7.2515237],[112.7015045,-7.2515543],[112.7014264,-7.251381]]]]}},
{"type":"Feature","properties":{"FID":12,"label":"Non sawah"},"geometry":{"type":"MultiPolygon","coordinates":[[[[112.701484,-7.2513708],[112.7015189,-7.2513504],[112.701558,-7.2514238],[112.7015251,-7.2514401],[112.701484,-7.2513708]]]]}},
{"type":"Feature","properties":{"FID":13,"label":"Non sawah"},"geometry":{"type":"MultiPolygon","coordinates":[[[[112.7015189,-7.2513463],[112.7015518,-7.2513381],[112.7016381,-7.2514829],[112.7015909,-7.2515013],[112.7015189,-7.2513463]]]]}},
{"type":"Feature","properties":{"FID":14,"label":"Non sawah"},"geometry":{"type":"MultiPolygon","coordinates":[[[[112.7015662,-7.2513259],[112.7016217,-7.2512973],[112.7016937,-7.251436],[112.7016484,-7.2514809],[112.7015662,-7.2513259]]]]}},
{"type":"Feature","properties":{"FID":15,"label":"Non sawah"},"geometry":{"type":"MultiPolygon","coordinates":[[[[112.701634,-7.2512851],[112.701671,-7.2512688],[112.7017307,-7.2514075],[112.701706,-7.2514279],[112.701634,-7.2512851]]]]}},
{"type":"Feature","properties":{"FID":16,"label":"Non sawah"},"geometry":{"type":"MultiPolygon","coordinates":[[[[112.7016834,-7.2512566],[112.7017163,-7.2512484],[112.7017841,-7.2513993],[112.7017471,-7.2514054],[112.7016834,-7.2512566]]]]}},
{"type":"Feature","properties":{"FID":17,"label":"Non sawah"},"geometry":{"type":"MultiPolygon","coordinates":[[[[112.7017265,-7.2512321],[112.7017841,-7.2512198],[112.7018561,-7.2513728],[112.7017903,-7.251385],[112.7017265,-7.2512321]]]]}},
{"type":"Feature","properties":{"FID":18,"label":"Non sawah"},"geometry":{"type":"MultiPolygon","coordinates":[[[[112.7015847,-7.2510546],[112.7016402,-7.2510383],[112.7016998,-7.2511852],[112.7016649,-7.2511974],[112.7015847,-7.2510546]]]]}},
{"type":"Feature","properties":{"FID":19,"label":"Non sawah"},"geometry":{"type":"MultiPolygon","coordinates":[[[[112.7016587,-7.2510322],[112.7017142,-7.2510179],[112.7017759,-7.2511464],[112.7017183,-7.2511709],[112.7016587,-7.2510322]]]]}},
{"type":"Feature","properties":{"FID":20,"label":"Non sawah"},"geometry":{"type":"MultiPolygon","coordinates":[[[[112.7017245,-7.2509975],[112.7017964,-7.2509792],[112.7018458,-7.2510975],[112.7017923,-7.251126],[112.7017245,-7.2509975]]]]}},
{"type":"Feature","properties":{"FID":21,"label":"Non sawah"},"geometry":{"type":"MultiPolygon","coordinates":[[[[112.7012516,-7.2516971],[112.7013257,-7.2516604],[112.7014099,-7.2518154],[112.7012989,-7.2518623],[112.7012516,-7.2516971]]]]}},
{"type":"Feature","properties":{"FID":22,"label":"Non sawah"},"geometry":{"type":"MultiPolygon","coordinates":[[[[112.7013997,-7.2516318],[112.7014634,-7.2515992],[112.7015333,-7.2517379],[112.7014552,-7.2517786],[112.7013997,-7.2516318]]]]}},
{"type":"Feature","properties":{"FID":23,"label":"Non sawah"},"geometry":{"type":"MultiPolygon","coordinates":[[[[112.7015497,-7.25154],[112.7016196,-7.2515013],[112.7016998,-7.2516522],[112.701632,-7.2517011],[112.7015497,-7.25154]]]]}},
{"type":"Feature","properties":{"FID":24,"label":"Non sawah"},"geometry":{"type":"MultiPolygon","coordinates":[[[[112.7016402,-7.251485],[112.7017183,-7.2514544],[112.7017882,-7.2516114],[112.7017163,-7.251644],[112.7016402,-7.251485]]]]}},
{"type":"Feature","properties":{"FID":25,"label":"Non sawah"},"geometry":{"type":"MultiPolygon","coordinates":[[[[112.7017142,-7.2514381],[112.7017533,-7.2514156],[112.701817,-7.2515767],[112.7017944,-7.2515931],[112.7017142,-7.2514381]]]]}},
{"type":"Feature","properties":{"FID":26,"label":"Non sawah"},"geometry":{"type":"MultiPolygon","coordinates":[[[[112.7017615,-7.2514156],[112.7017841,-7.2514095],[112.7018499,-7.2515502],[112.7018232,-7.2515686],[112.7017615,-7.2514156]]]]}},
{"type":"Feature","properties":{"FID":27,"label":"Non sawah"},"geometry":{"type":"MultiPolygon","coordinates":[[[[112.7017985,-7.2513891],[112.701852,-7.2513789],[112.7019157,-7.2515217],[112.7018663,-7.2515482],[112.7017985,-7.2513891]]]]}},
{"type":"Feature","properties":{"FID":28,"label":"Non sawah"},"geometry":{"type":"MultiPolygon","coordinates":[[[[112.7017964,-7.2511893],[112.7018746,-7.2511587],[112.7019568,-7.2513381],[112.701891,-7.2513871],[112.7017964,-7.2511893]]]]}},
{"type":"Feature","properties":{"FID":29,"label":"Non sawah"},"geometry":{"type":"MultiPolygon","coordinates":[[[[112.7018869,-7.251177],[112.701928,-7.2511627],[112.7019691,-7.2512668],[112.7019486,-7.2512892],[112.7018869,-7.251177]]]]}},
{"type":"Feature","properties":{"FID":30,"label":"Non sawah"},"geometry":{"type":"MultiPolygon","coordinates":[[[[112.7018787,-7.2514054],[112.7019198,-7.2513789],[112.7019691,-7.2514768],[112.7019198,-7.2515013],[112.7018787,-7.2514054]]]]}},
{"type":"Feature","properties":{"FID":31,"label":"Non sawah"},"geometry":{"type":"MultiPolygon","coordinates":[[[[112.7015621,-7.2511281],[112.701595,-7.2511138],[112.701634,-7.2511872],[112.7015991,-7.2512096],[112.7015621,-7.2511281]]]]}},
{"type":"Feature","properties":{"FID":32,"label":"Non sawah"},"geometry":{"type":"MultiPolygon","coordinates":[[[[112.7018067,-7.250971],[112.7018951,-7.2509343],[112.7019404,-7.2510485],[112.7018746,-7.2510832],[112.7018067,-7.250971]]]]}},
{"type":"Feature","properties":{"FID":33,"label":"Non sawah"},"geometry":{"type":"MultiPolygon","coordinates":[[[[112.7019198,-7.2511525],[112.7019527,-7.2511485],[112.7020246,-7.2512668],[112.7019897,-7.2512851],[112.7019198,-7.2511525]]]]}},
{"type":"Feature","properties":{"FID":34,"label":"Non sawah"},"geometry":{"type":"MultiPolygon","coordinates":[[[[112.7019486,-7.2510893],[112.7019979,-7.251073],[112.702076,-7.2512362],[112.7020349,-7.2512566],[112.7019486,-7.2510893]]]]}},
{"type":"Feature","properties":{"FID":35,"label":"Non sawah"},"geometry":{"type":"MultiPolygon","coordinates":[[[[112.701926,-7.2513667],[112.7019609,-7.2513463],[112.7020061,-7.2514483],[112.7019753,-7.2514625],[112.701926,-7.2513667]]]]}},
{"type":"Feature","properties":{"FID":36,"label":"Non sawah"},"geometry":{"type":"MultiPolygon","coordinates":[[[[112.7019506,-7.2513157],[112.7019918,-7.2512973],[112.7020658,-7.2514156],[112.7020144,-7.2514401],[112.7019506,-7.2513157]]]]}},
{"type":"Feature","properties":{"FID":37,"label":"Non sawah"},"geometry":{"type":"MultiPolygon","coordinates":[[[[112.701928,-7.2509542],[112.7019794,-7.250942],[112.7020123,-7.2510235],[112.701963,-7.251046],[112.701963,-7.2510439],[112.701928,-7.2509542]]]]}},
{"type":"Feature","properties":{"FID":38,"label":"Non sawah"},"geometry":{"type":"MultiPolygon","coordinates":[[[[112.7020103,-7.2510643],[112.7020617,-7.251048],[112.7021233,-7.2511969],[112.7020863,-7.251205],[112.7020103,-7.2510643]]]]}},
{"type":"Feature","properties":{"FID":39,"label":"Non sawah"},"geometry":{"type":"MultiPolygon","coordinates":[[[[112.7020658,-7.2510256],[112.7021151,-7.2510133],[112.7021809,-7.2511704],[112.7021357,-7.2511806],[112.7020658,-7.2510256]]]]}},
{"type":"Feature","properties":{"FID":40,"label":"Non sawah"},"geometry":{"type":"MultiPolygon","coordinates":[[[[112.7019835,-7.2509399],[112.7020103,-7.2509318],[112.7020452,-7.2509746],[112.7020041,-7.2509868],[112.7019835,-7.2509399]]]]}},
{"type":"Feature","properties":{"FID":41,"label":"Non sawah"},"geometry":{"type":"MultiPolygon","coordinates":[[[[112.702,-7.2508767],[112.7020452,-7.2508747],[112.7020945,-7.2509868],[112.7020658,-7.2509868],[112.702,-7.2508767]]]]}},
{"type":"Feature","properties":{"FID":42,"label":"Non sawah"},"geometry":{"type":"MultiPolygon","coordinates":[[[[112.7021192,-7.2510133],[112.7021829,-7.250997],[112.7022446,-7.251099],[112.7021871,-7.2511337],[112.7021192,-7.2510133]]]]}},
{"type":"Feature","properties":{"FID":43,"label":"Non sawah"},"geometry":{"type":"MultiPolygon","coordinates":[[[[112.7021069,-7.2508624],[112.702185,-7.2508583],[112.7021973,-7.250942],[112.7021192,-7.250946],[112.7021069,-7.2508624]]]]}},
{"type":"Feature","properties":{"FID":44,"label":"Non sawah"},"geometry":{"type":"MultiPolygon","coordinates":[[[[112.7022138,-7.2510093],[112.7022631,-7.250995],[112.7023063,-7.2510827],[112.7022611,-7.251097],[112.7022138,-7.2510093]]]]}},
{"type":"Feature","properties":{"FID":45,"label":"Non sawah"},"geometry":{"type":"MultiPolygon","coordinates":[[[[112.7020493,-7.2513111],[112.7020843,-7.2512887],[112.7021542,-7.2513702],[112.7020945,-7.251409],[112.7020493,-7.2513111]]]]}},
{"type":"Feature","properties":{"FID":46,"label":"Non sawah"},"geometry":{"type":"MultiPolygon","coordinates":[[[[112.702185,-7.2511622],[112.7022158,-7.25115],[112.7022714,-7.2512764],[112.7022364,-7.2512887],[112.702185,-7.2511622]]]]}},
{"type":"Feature","properties":{"FID":47,"label":"Non sawah"},"geometry":{"type":"MultiPolygon","coordinates":[[[[112.7020658,-7.2512418],[112.7021706,-7.2511989],[112.70222,-7.2513111],[112.7021603,-7.2513498],[112.7020658,-7.2512418]]]]}},
{"type":"Feature","properties":{"FID":48,"label":"Non sawah"},"geometry":{"type":"MultiPolygon","coordinates":[[[[112.7022138,-7.2511337],[112.7022528,-7.2511153],[112.7023042,-7.2512193],[112.7022714,-7.2512356],[112.7022138,-7.2511337]]]]}},
{"type":"Feature","properties":{"FID":49,"label":"Non sawah"},"geometry":{"type":"MultiPolygon","coordinates":[[[[112.7022672,-7.2511173],[112.7023084,-7.2510949],[112.7023844,-7.2512356],[112.7023413,-7.2512703],[112.7022672,-7.2511173]]]]}}
]
}
